CCSDS_OMM_VERS = 2.0
CREATION_DATE  = 
ORIGINATOR     = 

OBJECT_NAME    = DELTA 1 R/B
OBJECT_ID      = 1989-089B
CENTER_NAME    = EARTH
REF_FRAME      = TEME
TIME_SYSTEM    = UTC
MEAN_ELEMENT_THEORY = SGP/SGP4

EPOCH          = 2025-10-26T15:55:08.207616
MEAN_MOTION    = 14.50514249
ECCENTRICITY   = .0068975
INCLINATION    = 97.0807
RA_OF_ASC_NODE = 163.3511
ARG_OF_PERICENTER = 184.9214
MEAN_ANOMALY   = 175.1314

EPHEMERIS_TYPE = 0
CLASSIFICATION_TYPE = U
NORAD_CAT_ID   = 20323
ELEMENT_SET_NO = 999
REV_AT_EPOCH   = 87630
BSTAR          = .12209E-3
MEAN_MOTION_DOT = .457E-5
MEAN_MOTION_DDOT = 0

CCSDS_OMM_VERS = 2.0
CREATION_DATE  = 
ORIGINATOR     = 

OBJECT_NAME    = ARIANE 40 R/B
OBJECT_ID      = 1990-005H
CENTER_NAME    = EARTH
REF_FRAME      = TEME
TIME_SYSTEM    = UTC
MEAN_ELEMENT_THEORY = SGP/SGP4

EPOCH          = 2025-10-26T18:14:26.261952
MEAN_MOTION    = 14.39744167
ECCENTRICITY   = .0009112
INCLINATION    = 98.3306
RA_OF_ASC_NODE = 359.2511
ARG_OF_PERICENTER = 244.7170
MEAN_ANOMALY   = 115.3074

EPHEMERIS_TYPE = 0
CLASSIFICATION_TYPE = U
NORAD_CAT_ID   = 20443
ELEMENT_SET_NO = 999
REV_AT_EPOCH   = 87353
BSTAR          = .15571E-3
MEAN_MOTION_DOT = .445E-5
MEAN_MOTION_DDOT = 0

CCSDS_OMM_VERS = 2.0
CREATION_DATE  = 
ORIGINATOR     = 

OBJECT_NAME    = DELTA 2 R/B(1)
OBJECT_ID      = 1990-008B
CENTER_NAME    = EARTH
REF_FRAME      = TEME
TIME_SYSTEM    = UTC
MEAN_ELEMENT_THEORY = SGP/SGP4

EPOCH          = 2025-10-26T18:39:38.832192
MEAN_MOTION    = 15.41012153
ECCENTRICITY   = .011846
INCLINATION    = 35.6081
RA_OF_ASC_NODE = 322.8014
ARG_OF_PERICENTER = 111.3774
MEAN_ANOMALY   = 249.9644

EPHEMERIS_TYPE = 0
CLASSIFICATION_TYPE = U
NORAD_CAT_ID   = 20453
ELEMENT_SET_NO = 999
REV_AT_EPOCH   = 90537
BSTAR          = .58282E-3
MEAN_MOTION_DOT = .31998E-3
MEAN_MOTION_DDOT = 0

CCSDS_OMM_VERS = 2.0
CREATION_DATE  = 
ORIGINATOR     = 

OBJECT_NAME    = COSMOS 2058
OBJECT_ID      = 1990-010A
CENTER_NAME    = EARTH
REF_FRAME      = TEME
TIME_SYSTEM    = UTC
MEAN_ELEMENT_THEORY = SGP/SGP4

EPOCH          = 2025-10-26T18:44:12.098112
MEAN_MOTION    = 15.09960806
ECCENTRICITY   = .0011311
INCLINATION    = 82.4704
RA_OF_ASC_NODE = 179.2148
ARG_OF_PERICENTER = 71.7049
MEAN_ANOMALY   = 288.5409

EPHEMERIS_TYPE = 0
CLASSIFICATION_TYPE = U
NORAD_CAT_ID   = 20465
ELEMENT_SET_NO = 999
REV_AT_EPOCH   = 92202
BSTAR          = .26115E-3
MEAN_MOTION_DOT = .4271E-4
MEAN_MOTION_DDOT = 0

CCSDS_OMM_VERS = 2.0
CREATION_DATE  = 
ORIGINATOR     = 

OBJECT_NAME    = SL-14 R/B
OBJECT_ID      = 1990-010B
CENTER_NAME    = EARTH
REF_FRAME      = TEME
TIME_SYSTEM    = UTC
MEAN_ELEMENT_THEORY = SGP/SGP4

EPOCH          = 2025-10-26T17:32:44.289888
MEAN_MOTION    = 14.83406496
ECCENTRICITY   = .0020432
INCLINATION    = 82.5053
RA_OF_ASC_NODE = 33.1849
ARG_OF_PERICENTER = 25.4322
MEAN_ANOMALY   = 334.7894

EPHEMERIS_TYPE = 0
CLASSIFICATION_TYPE = U
NORAD_CAT_ID   = 20466
ELEMENT_SET_NO = 999
REV_AT_EPOCH   = 90862
BSTAR          = .81034E-4
MEAN_MOTION_DOT = .691E-5
MEAN_MOTION_DDOT = 0

CCSDS_OMM_VERS = 2.0
CREATION_DATE  = 
ORIGINATOR     = 

OBJECT_NAME    = SL-14 R/B
OBJECT_ID      = 1990-018B
CENTER_NAME    = EARTH
REF_FRAME      = TEME
TIME_SYSTEM    = UTC
MEAN_ELEMENT_THEORY = SGP/SGP4

EPOCH          = 2025-10-26T14:52:49.264032
MEAN_MOTION    = 14.81982030
ECCENTRICITY   = .0016734
INCLINATION    = 82.5230
RA_OF_ASC_NODE = 348.4083
ARG_OF_PERICENTER = 168.2772
MEAN_ANOMALY   = 191.8835

EPHEMERIS_TYPE = 0
CLASSIFICATION_TYPE = U
NORAD_CAT_ID   = 20511
ELEMENT_SET_NO = 999
REV_AT_EPOCH   = 90272
BSTAR          = .69515E-4
MEAN_MOTION_DOT = .576E-5
MEAN_MOTION_DDOT = 0

CCSDS_OMM_VERS = 2.0
CREATION_DATE  = 
ORIGINATOR     = 

OBJECT_NAME    = HST
OBJECT_ID      = 1990-037B
CENTER_NAME    = EARTH
REF_FRAME      = TEME
TIME_SYSTEM    = UTC
MEAN_ELEMENT_THEORY = SGP/SGP4

EPOCH          = 2025-10-26T05:32:39.493824
MEAN_MOTION    = 15.27150496
ECCENTRICITY   = .0002167
INCLINATION    = 28.4678
RA_OF_ASC_NODE = 235.6408
ARG_OF_PERICENTER = 65.9954
MEAN_ANOMALY   = 294.0868

EPHEMERIS_TYPE = 0
CLASSIFICATION_TYPE = U
NORAD_CAT_ID   = 20580
ELEMENT_SET_NO = 999
REV_AT_EPOCH   = 75272
BSTAR          = .32384E-3
MEAN_MOTION_DOT = .9097E-4
MEAN_MOTION_DDOT = 0

CCSDS_OMM_VERS = 2.0
CREATION_DATE  = 
ORIGINATOR     = 

OBJECT_NAME    = SL-16 R/B
OBJECT_ID      = 1990-046B
CENTER_NAME    = EARTH
REF_FRAME      = TEME
TIME_SYSTEM    = UTC
MEAN_ELEMENT_THEORY = SGP/SGP4

EPOCH          = 2025-10-26T19:20:29.048064
MEAN_MOTION    = 14.14990680
ECCENTRICITY   = .001312
INCLINATION    = 70.9999
RA_OF_ASC_NODE = 219.0835
ARG_OF_PERICENTER = 156.4310
MEAN_ANOMALY   = 203.7416

EPHEMERIS_TYPE = 0
CLASSIFICATION_TYPE = U
NORAD_CAT_ID   = 20625
ELEMENT_SET_NO = 999
REV_AT_EPOCH   = 82945
BSTAR          = .14756E-3
MEAN_MOTION_DOT = .238E-5
MEAN_MOTION_DDOT = 0

CCSDS_OMM_VERS = 2.0
CREATION_DATE  = 
ORIGINATOR     = 

OBJECT_NAME    = COSMOS 2084
OBJECT_ID      = 1990-055A
CENTER_NAME    = EARTH
REF_FRAME      = TEME
TIME_SYSTEM    = UTC
MEAN_ELEMENT_THEORY = SGP/SGP4

EPOCH          = 2025-10-26T18:51:47.983392
MEAN_MOTION    = 15.04579814
ECCENTRICITY   = .0039677
INCLINATION    = 62.7910
RA_OF_ASC_NODE = 71.9295
ARG_OF_PERICENTER = 169.1701
MEAN_ANOMALY   = 191.0262

EPHEMERIS_TYPE = 0
CLASSIFICATION_TYPE = U
NORAD_CAT_ID   = 20663
ELEMENT_SET_NO = 999
REV_AT_EPOCH   = 91616
BSTAR          = .40088E-3
MEAN_MOTION_DOT = .5549E-4
MEAN_MOTION_DDOT = 0

CCSDS_OMM_VERS = 2.0
CREATION_DATE  = 
ORIGINATOR     = 

OBJECT_NAME    = SL-6 R/B(2)
OBJECT_ID      = 1990-055D
CENTER_NAME    = EARTH
REF_FRAME      = TEME
TIME_SYSTEM    = UTC
MEAN_ELEMENT_THEORY = SGP/SGP4

EPOCH          = 2025-10-26T12:38:48.011712
MEAN_MOTION    = 15.02730894
ECCENTRICITY   = .0010743
INCLINATION    = 62.7849
RA_OF_ASC_NODE = 349.7956
ARG_OF_PERICENTER = 265.2410
MEAN_ANOMALY   = 94.7462

EPHEMERIS_TYPE = 0
CLASSIFICATION_TYPE = U
NORAD_CAT_ID   = 20666
ELEMENT_SET_NO = 999
REV_AT_EPOCH   = 91802
BSTAR          = .22533E-3
MEAN_MOTION_DOT = .2833E-4
MEAN_MOTION_DDOT = 0

CCSDS_OMM_VERS = 2.0
CREATION_DATE  = 
ORIGINATOR     = 

OBJECT_NAME    = SL-8 R/B
OBJECT_ID      = 1990-078B
CENTER_NAME    = EARTH
REF_FRAME      = TEME
TIME_SYSTEM    = UTC
MEAN_ELEMENT_THEORY = SGP/SGP4

EPOCH          = 2025-10-26T16:31:16.514976
MEAN_MOTION    = 14.83611427
ECCENTRICITY   = .0383872
INCLINATION    = 82.9088
RA_OF_ASC_NODE = 11.3250
ARG_OF_PERICENTER = 103.0032
MEAN_ANOMALY   = 261.4331

EPHEMERIS_TYPE = 0
CLASSIFICATION_TYPE = U
NORAD_CAT_ID   = 20775
ELEMENT_SET_NO = 999
REV_AT_EPOCH   = 78939
BSTAR          = .52134E-3
MEAN_MOTION_DOT = .16831E-3
MEAN_MOTION_DDOT = 0

CCSDS_OMM_VERS = 2.0
CREATION_DATE  = 
ORIGINATOR     = 

OBJECT_NAME    = SL-8 R/B
OBJECT_ID      = 1991-006B
CENTER_NAME    = EARTH
REF_FRAME      = TEME
TIME_SYSTEM    = UTC
MEAN_ELEMENT_THEORY = SGP/SGP4

EPOCH          = 2025-10-26T16:54:29.944800
MEAN_MOTION    = 13.77478962
ECCENTRICITY   = .0023693
INCLINATION    = 82.9392
RA_OF_ASC_NODE = 269.7043
ARG_OF_PERICENTER = 52.7120
MEAN_ANOMALY   = 120.1240

EPHEMERIS_TYPE = 0
CLASSIFICATION_TYPE = U
NORAD_CAT_ID   = 21088
ELEMENT_SET_NO = 999
REV_AT_EPOCH   = 74562
BSTAR          = .16863E-3
MEAN_MOTION_DOT = .183E-5
MEAN_MOTION_DDOT = 0

