DELTA 1 R/B             
1 20323U 89089B   25299.66328944  .00000457  00000+0  12209-3 0  9995
2 20323  97.0807 163.3511 0068975 184.9214 175.1314 14.50514249876308
ARIANE 40 R/B           
1 20443U 90005H   25299.76002618  .00000445  00000+0  15571-3 0  9998
2 20443  98.3306 359.2511 0009112 244.7170 115.3074 14.39744167873531
DELTA 2 R/B(1)          
1 20453U 90008B   25299.77753278  .00031998  00000+0  58282-3 0  9991
2 20453  35.6081 322.8014 0118460 111.3774 249.9644 15.41012153905378
COSMOS 2058             
1 20465U 90010A   25299.78069558  .00004271  00000+0  26115-3 0  9993
2 20465  82.4704 179.2148 0011311  71.7049 288.5409 15.09960806922026
SL-14 R/B               
1 20466U 90010B   25299.73106817  .00000691  00000+0  81034-4 0  9993
2 20466  82.5053  33.1849 0020432  25.4322 334.7894 14.83406496908628
SL-14 R/B               
1 20511U 90018B   25299.62001463  .00000576  00000+0  69515-4 0  9993
2 20511  82.5230 348.4083 0016734 168.2772 191.8835 14.81982030902726
HST                     
1 20580U 90037B   25299.23101266  .00009097  00000+0  32384-3 0  9999
2 20580  28.4678 235.6408 0002167  65.9954 294.0868 15.27150496752724
SL-16 R/B               
1 20625U 90046B   25299.80589176  .00000238  00000+0  14756-3 0  9993
2 20625  70.9999 219.0835 0013120 156.4310 203.7416 14.14990680829458
COSMOS 2084             
1 20663U 90055A   25299.78597203  .00005549  00000+0  40088-3 0  9999
2 20663  62.7910  71.9295 0039677 169.1701 191.0262 15.04579814916162
SL-6 R/B(2)             
1 20666U 90055D   25299.52694458  .00002833  00000+0  22533-3 0  9992
2 20666  62.7849 349.7956 0010743 265.2410  94.7462 15.02730894918027
SL-8 R/B                
1 20775U 90078B   25299.68838559  .00016831  00000+0  52134-3 0  9990
2 20775  82.9088  11.3250 0383872 103.0032 261.4331 14.83611427789393
SL-8 R/B                
1 21088U 91006B   25299.70451325  .00000183  00000+0  16863-3 0  9997
2 21088  82.9392 269.7043 0023693  52.7120 120.1240 13.77478962745623
